{
    "satellites": [
        {
            "name": "starlink328",
            "title": "Starlink-328 (G6-86)",
            "tle": [
                "1 66814C 25278Z   25352.76229167 -.02097300  00000+0 -18463-1 0  3524",
                "2 66814  42.9992 215.2548 0001077 267.4117 247.5022 15.69926265    16"
            ],
            "stdMag": 5,
            "noradId": "66814",
            "tleUrl": "http://celestrak.org/NORAD/elements/supplemental/sup-gp.php?FILE=starlink&FORMAT=tle",
            "launchDate": "2025-12-01T07:44:10.000Z",
            "active": true,
            "batch": [
                {
                    "noradId": "66814",
                    "tle": [
                        "1 66814C 25278Z   25352.76229167 -.02097300  00000+0 -18463-1 0  3524",
                        "2 66814  42.9992 215.2548 0001077 267.4117 247.5022 15.69926265    16"
                    ]
                },
                {
                    "noradId": "66815",
                    "tle": [
                        "1 66815C 25278AA  25352.75812500 -.02097600  00000+0 -18453-1 0  3525",
                        "2 66815  42.9991 215.2845 0001118 271.0582 218.3606 15.69944750    12"
                    ]
                },
                {
                    "noradId": "66819",
                    "tle": [
                        "1 66819C 25278AE  25352.76298611 -.02098600  00000+0 -18477-1 0  3528",
                        "2 66819  42.9992 215.2604 0001075 269.0457 245.9621 15.69925010    11"
                    ]
                },
                {
                    "noradId": "66818",
                    "tle": [
                        "1 66818C 25278AD  25352.75951389 -.02097600  00000+0 -18456-1 0  3520",
                        "2 66818  42.9991 215.2915 0001050 272.8733 218.6503 15.69939838    15"
                    ]
                },
                {
                    "noradId": "66817",
                    "tle": [
                        "1 66817C 25278AC  25352.76090278 -.02098600  00000+0 -18470-1 0  3528",
                        "2 66817  42.9991 215.2778 0001133 270.3552 230.9465 15.69934102    18"
                    ]
                },
                {
                    "noradId": "66816",
                    "tle": [
                        "1 66816C 25278AB  25352.75743056 -.02098100  00000+0 -18455-1 0  3523",
                        "2 66816  42.9991 215.3086 0001123 273.2727 204.5482 15.69948245    14"
                    ]
                },
                {
                    "noradId": "66813",
                    "tle": [
                        "1 66813C 25278Y   25352.76437500 -.02096900  00000+0 -18467-1 0  3524",
                        "2 66813  42.9992 215.2716 0001076 270.2111 244.9890 15.69917059    12"
                    ]
                },
                {
                    "noradId": "66812",
                    "tle": [
                        "1 66812C 25278X   25352.76159722 -.02098800  00000+0 -18474-1 0  3529",
                        "2 66812  42.9991 215.2937 0001101 271.3956 226.1688 15.69930900    10"
                    ]
                },
                {
                    "noradId": "66811",
                    "tle": [
                        "1 66811C 25278W   25352.76229167 -.02090200  00000+0 -18404-1 0  3528",
                        "2 66811  42.9991 215.2992 0001009 270.5395 227.1359 15.69915168    10"
                    ]
                },
                {
                    "noradId": "66810",
                    "tle": [
                        "1 66810C 25278V   25352.75743056 -.02091500  00000+0 -18399-1 0  3521",
                        "2 66810  42.9991 215.3337 0001254 274.6298 193.6178 15.69938110    10"
                    ]
                },
                {
                    "noradId": "66809",
                    "tle": [
                        "1 66809C 25278U   25352.76090278 -.02143100  00000+0 -18862-1 0  3520",
                        "2 66809  42.9992 215.3022 0001317 274.0648 217.6370 15.69979754    13"
                    ]
                },
                {
                    "noradId": "66808",
                    "tle": [
                        "1 66808C 25278T   25352.75812500 -.02099600  00000+0 -18471-1 0  3529",
                        "2 66808  42.9991 215.3342 0001277 272.0311 198.2201 15.69945397    19"
                    ]
                },
                {
                    "noradId": "66807",
                    "tle": [
                        "1 66807C 25278S   25352.75812500 -.02094600  00000+0 -18427-1 0  3524",
                        "2 66807  42.9991 215.3390 0001176 271.4171 196.9184 15.69940578    17"
                    ]
                },
                {
                    "noradId": "66806",
                    "tle": [
                        "1 66806C 25278R   25352.76298611 -.02098500  00000+0 -18476-1 0  3522",
                        "2 66806  42.9992 215.3238 0001127 273.5231 216.5652 15.69924343    15"
                    ]
                },
                {
                    "noradId": "66805",
                    "tle": [
                        "1 66805C 25278Q   25352.76368056 -.02097800  00000+0 -18472-1 0  3520",
                        "2 66805  42.9992 215.3145 0001128 270.6100 225.3242 15.69920928    13"
                    ]
                },
                {
                    "noradId": "66801",
                    "tle": [
                        "1 66801C 25278L   25352.75881944 -.02098900  00000+0 -18466-1 0  3526",
                        "2 66801  42.9991 215.3386 0001234 272.4541 197.8899 15.69942825    13"
                    ]
                },
                {
                    "noradId": "66804",
                    "tle": [
                        "1 66804C 25278P   25352.76298611 -.02099300  00000+0 -18483-1 0  3527",
                        "2 66804  42.9991 215.3292 0001132 271.1465 217.0224 15.69925839    13"
                    ]
                },
                {
                    "noradId": "66803",
                    "tle": [
                        "1 66803C 25278N   25352.75951389 -.02098400  00000+0 -18464-1 0  3522",
                        "2 66803  42.9991 215.3544 0001197 271.7778 194.8292 15.69938905    11"
                    ]
                },
                {
                    "noradId": "66802",
                    "tle": [
                        "1 66802C 25278M   25352.76368056 -.02076100  00000+0 -18290-1 0  3525",
                        "2 66802  42.9992 215.3389 0001137 273.0967 213.2928 15.69888006    15"
                    ]
                },
                {
                    "noradId": "66800",
                    "tle": [
                        "1 66800C 25278K   25352.75951389 -.02097100  00000+0 -18453-1 0  3523",
                        "2 66800  42.9991 215.3598 0001267 272.2872 192.4010 15.69938157    17"
                    ]
                },
                {
                    "noradId": "66799",
                    "tle": [
                        "1 66799C 25278J   25352.76368056 -.02099300  00000+0 -18485-1 0  3523",
                        "2 66799  42.9991 215.3446 0001129 272.5720 211.8572 15.69923164    19"
                    ]
                },
                {
                    "noradId": "66798",
                    "tle": [
                        "1 66798C 25278H   25352.76020833 -.02098800  00000+0 -18470-1 0  3528",
                        "2 66798  42.9991 215.3698 0001221 273.2466 189.6191 15.69937256    11"
                    ]
                },
                {
                    "noradId": "66797",
                    "tle": [
                        "1 66797C 25278G   25352.76090278 -.02101700  00000+0 -18500-1 0  3525",
                        "2 66797  42.9991 215.3709 0001286 274.1878 190.6966 15.69934697    19"
                    ]
                },
                {
                    "noradId": "66796",
                    "tle": [
                        "1 66796C 25278F   25352.76506944  .00010437  00000+0  52132-4 0  3520",
                        "2 66796  42.9925 214.0325 0001668 262.0149  24.2946 15.80846824    13"
                    ]
                },
                {
                    "noradId": "66795",
                    "tle": [
                        "1 66795C 25278E   25352.76368056 -.02098500  00000+0 -18478-1 0  3522",
                        "2 66795  42.9991 215.3638 0001154 271.2000 205.5600 15.69922835    19"
                    ]
                },
                {
                    "noradId": "66794",
                    "tle": [
                        "1 66794C 25278D   25352.75951389 -.02072100  00000+0 -18241-1 0  3523",
                        "2 66794  42.9991 215.3977 0001297 267.9321 181.4621 15.69901525    18"
                    ]
                },
                {
                    "noradId": "66793",
                    "tle": [
                        "1 66793C 25278C   25352.76020833 -.02097600  00000+0 -18459-1 0  3527",
                        "2 66793  42.9991 215.3895 0001321 272.7316 182.4662 15.69935829    12"
                    ]
                },
                {
                    "noradId": "66792",
                    "tle": [
                        "1 66792C 25278B   25352.76159722 -.02073500  00000+0 -18260-1 0  3529",
                        "2 66792  42.9991 215.3906 0001324 277.3089 181.9560 15.69894051    17"
                    ]
                },
                {
                    "noradId": "66791",
                    "tle": [
                        "1 66791C 25278A   25352.76368056 -.02098900  00000+0 -18482-1 0  3527",
                        "2 66791  42.9991 215.3826 0001183 272.8033 196.2916 15.69922246    11"
                    ]
                }
            ]
        }
    ],
    "config": {}
}